NORAD_CAT_ID,OBJECT_NAME,OBJECT_TYPE,EPOCH,MEAN_MOTION,ECCENTRICITY,INCLINATION,RA_OF_ASC_NODE,ARG_OF_PERICENTER,MEAN_ANOMALY,BSTAR,MEAN_MOTION_DOT,MEAN_MOTION_DDOT,TLE_LINE0,TLE_LINE1,TLE_LINE2,SEMIMAJOR_AXIS,PERIOD,APOGEE,PERIGEE,DECAYED
53142.0,STARLINK-4101,PAYLOAD,2022-07-21 18:00:00,15.88868633,0.0036089,53.2174,26.5958,52.539,44.5211,-0.004242,-0.01299294,0.00047791,0 STARLINK-4101,1 53142U 22083L   22202.75001157 -.01299294  47791-3 -42420-2 0  9997,2 53142  53.2174  26.5958 0036089  52.5390  44.5211 15.88868633  1301,6683.590999999999,90.631,329.576,281.335,0.0
53142.0,STARLINK-4101,PAYLOAD,2022-07-22 04:00:00,15.87807888,0.0032470999999999,53.2175,24.4871,52.4703,268.4762,-0.0047965,-0.01375775,0.00052524,0 STARLINK-4101,1 53142U 22083L   22203.16667824 -.01375775  52524-3 -47965-2 0  9990,2 53142  53.2175  24.4871 0032471  52.4703 268.4762 15.87807888  1369,6686.566999999999,90.691,330.144,286.72,0.0
53142.0,STARLINK-4101,PAYLOAD,2022-07-22 06:00:00,15.87555507,0.0031703,53.2177,24.0652,52.1202,25.4202,-0.0046273999999999,-0.01308429,0.00047821,0 STARLINK-4101,1 53142U 22083L   22203.25001157 -.01308429  47821-3 -46274-2 0  9999,2 53142  53.2177  24.0652 0031703  52.1202  25.4202 15.87555507  1304,6687.276,90.705,330.341,287.94,0.0
53142.0,STARLINK-4101,PAYLOAD,2022-07-22 12:00:00,15.86897037,0.0028997,53.2177,22.8016,51.5064,15.3836,-0.0048193,-0.01309219,0.00047587,0 STARLINK-4101,1 53142U 22083L   22203.50001157 -.01309219  47587-3 -48193-2 0  9996,2 53142  53.2177  22.8016 0028997  51.5064  15.3836 15.86897037  1413,6689.125,90.743,330.38699999999994,291.594,0.0
53142.0,STARLINK-4101,PAYLOAD,2022-07-22 20:00:01,15.86040661,0.0025586,53.2175,21.1216,50.394,121.3627,-0.0052508,-0.01356028,0.00050342,0 STARLINK-4101,1 53142U 22083L   22203.83334491 -.01356028  50342-3 -52508-2 0  9990,2 53142  53.2175  21.1216 0025586  50.3940 121.3627 15.86040661  1471,6691.533,90.792,330.519,296.277,0.0
53142.0,STARLINK-4101,PAYLOAD,2022-07-22 22:00:00,15.85835855,0.0023831,53.2175,20.7017,50.5784,237.2272,-0.0054512,-0.01388318,0.00052453,0 STARLINK-4101,1 53142U 22083L   22203.91667824 -.01388318  52453-3 -54512-2 0  9997,2 53142  53.2175  20.7017 0023831  50.5784 237.2272 15.85835855  1305,6692.109,90.804,329.922,298.026,0.0
53142.0,STARLINK-4101,PAYLOAD,2022-07-23 04:00:00,15.85181233,0.0020811,53.2174,19.4404,51.4767,224.0941,-0.0056982,-0.01230551,0.0,0 STARLINK-4101,1 53142U 22083L   22204.16667824 -.01230551  00000-0 -56982-2 0  9991,2 53142  53.2174  19.4404 0020811  51.4767 224.0941 15.85181233  1520,6693.951,90.841,329.747,301.886,0.0
53142.0,STARLINK-4101,PAYLOAD,2022-07-23 14:00:01,15.84051331,0.0017472,53.2177,17.3429,50.0147,83.9224,-0.0057573,-0.01175818,0.0,0 STARLINK-4101,1 53142U 22083L   22204.58335648 -.01175818  00000-0 -57573-2 0  9994,2 53142  53.2177  17.3429 0017472  50.0147  83.9224 15.84051331  1309,6697.134,90.906,330.701,307.298,0.0
53142.0,STARLINK-4101,PAYLOAD,2022-07-23 22:00:00,15.83197254,0.001372,53.2176,15.6696,49.8127,185.4924,-0.0062619999999999,-0.01237241,0.0,0 STARLINK-4101,1 53142U 22083L   22204.91667824 -.01237241  00000-0 -62620-2 0  9993,2 53142  53.2176  15.6696 0013720  49.8127 185.4924 15.83197254  1647,6699.543000000002,90.955,330.599,312.216,0.0
53142.0,STARLINK-4101,PAYLOAD,2022-07-24 14:00:01,15.81411462,0.0007877,53.2176,12.3243,36.4356,38.5987,-0.006547,-0.01185947,0.0,0 STARLINK-4101,1 53142U 22083L   22205.58334491 -.01185947  00000-0 -65470-2 0  9999,2 53142  53.2176  12.3243 0007877  36.4356  38.5987 15.81411462  1309,6704.585,91.058,331.731,321.1690000000001,0.0
53142.0,STARLINK-4101,PAYLOAD,2022-07-24 22:00:00,15.80543297,0.000516,53.2173,10.6573,26.0048,147.3001,-0.0069373,-0.01201858,0.0,0 STARLINK-4101,1 53142U 22083L   22205.91667824 -.01201858  00000-0 -69373-2 0  9991,2 53142  53.2173  10.6573 0005160  26.0048 147.3001 15.80543297  1306,6707.04,91.108,332.366,325.444,0.0
53142.0,STARLINK-4101,PAYLOAD,2022-07-25 06:00:00,15.79677233,0.0004,53.2175,8.9887,11.7717,258.7493,-0.0073658,-0.01222301,0.0,0 STARLINK-4101,1 53142U 22083L   22206.25001157 -.01222301  00000-0 -73658-2 0  9997,2 53142  53.2175   8.9887 0004000  11.7717 258.7493 15.79677233  1850,6709.491,91.158,334.04,328.673,0.0
53142.0,STARLINK-4101,PAYLOAD,2022-07-25 14:00:01,15.78792692,0.0003641,53.2177,7.3249,1.2198,5.4659,-0.0076028999999999,-0.01212413,0.0,0 STARLINK-4101,1 53142U 22083L   22206.58334491 -.01212413  00000-0 -76029-2 0  9991,2 53142  53.2177   7.3249 0003641   1.2198   5.4659 15.78792692  1301,6711.996999999999,91.209,336.306,331.418,0.0
53142.0,STARLINK-4101,PAYLOAD,2022-07-25 22:00:00,15.7790849,0.0003535,53.2174,5.6641,4.7317,97.0619,-0.0078428,-0.01202528,0.0,0 STARLINK-4101,1 53142U 22083L   22206.91667824 -.01202528  00000-0 -78428-2 0  9998,2 53142  53.2174   5.6641 0003535   4.7317  97.0619 15.77908490  1305,6714.504,91.26,338.74300000000005,333.996,0.0
53142.0,STARLINK-4101,PAYLOAD,2022-07-26 04:00:01,15.7725173,0.0003523999999999,53.2175,4.4172,2.8063,79.6907,-0.0081104,-0.01206693,0.0,0 STARLINK-4101,1 53142U 22083L   22207.16668981 -.01206693  00000-0 -81104-2 0  9993,2 53142  53.2175   4.4172 0003524   2.8063  79.6907 15.77251730  1996,6716.368,91.298,340.6,335.866,0.0
53142.0,STARLINK-4101,PAYLOAD,2022-07-26 14:00:01,15.76151977,0.0004046999999999,53.2174,2.3451,351.7524,297.0873,-0.0084972,-0.01204229,0.0,0 STARLINK-4101,1 53142U 22083L   22207.58334491 -.01204229  00000-0 -84972-2 0  9994,2 53142  53.2174   2.3451 0004047 351.7524 297.0873 15.76151977  1305,6719.4919999999975,91.362,344.076,338.6380000000001,0.0
53142.0,STARLINK-4101,PAYLOAD,2022-07-26 20:00:01,15.75485027,0.0005185,53.2174,1.1045,225.1998,42.6953,-0.0086481,-0.01192293,0.0,0 STARLINK-4101,1 53142U 22083L   22207.83334491 -.01192293  00000-0 -86481-2 0  9996,2 53142  53.2174   1.1045 0005185 225.1998  42.6953 15.75485027  2101,6721.388000000001,91.4,346.73800000000006,339.76800000000014,0.0
53142.0,STARLINK-4101,PAYLOAD,2022-07-26 22:00:00,15.75267139,0.0005168999999999,53.2171,0.6906,218.7067,162.0725,-0.0087313999999999,-0.01192232,0.0,0 STARLINK-4101,1 53142U 22083L   22207.91667824 -.01192232  00000-0 -87314-2 0  9993,2 53142  53.2171   0.6906 0005169 218.7067 162.0725 15.75267139  1302,6722.0080000000025,91.413,347.348,340.399,0.0
53142.0,STARLINK-4101,PAYLOAD,2022-07-27 04:00:01,15.74606464,0.0002323,53.2175,359.4485,314.1828,44.9243,-0.0089732999999999,-0.01188508,0.0,0 STARLINK-4101,1 53142U 22083L   22208.16668981 -.01188508  00000-0 -89733-2 0  9994,2 53142  53.2175 359.4485 0002323 314.1828  44.9243 15.74606464  2152,6723.888000000001,91.451,347.315,344.191,0.0
53142.0,STARLINK-4101,PAYLOAD,2022-07-27 14:00:01,15.73434288,0.0006317,53.2177,357.3846,307.2211,254.2814,-0.0024339,-0.0033296,0.0,0 STARLINK-4101,1 53142U 22083L   22208.58334491 -.00332960  00000-0 -24339-2 0  9999,2 53142  53.2177 357.3846 0006317 307.2211 254.2814 15.73434288  2228,6727.227,91.52,353.342,344.843,0.0
53142.0,STARLINK-4101,PAYLOAD,2022-07-27 22:00:00,15.73315092,0.0003884,53.217,355.7355,266.6165,23.8926,-0.0012638,-0.00175307,0.0,0 STARLINK-4101,1 53142U 22083L   22208.91667824 -.00175307  00000-0 -12638-2 0  9994,2 53142  53.2170 355.7355 0003884 266.6165  23.8926 15.73315092  2270,6727.566999999999,91.526,352.045,346.819,0.0
53142.0,STARLINK-4101,PAYLOAD,2022-07-28 06:00:00,15.73178692,0.0004238,53.2175,354.0849,274.1792,105.0943,0.00054186,0.00076076,0.0,0 STARLINK-4101,1 53142U 22083L   22209.25001157  .00076076  00000-0  54186-3 0  9999,2 53142  53.2175 354.0849 0004238 274.1792 105.0943 15.73178692  2320,6727.956,91.534,352.672,346.97,0.0
53142.0,STARLINK-4101,PAYLOAD,2022-07-28 14:00:01,15.73251521,0.0004234,53.2176,352.4368,277.4072,190.8107,4.3321e-05,5.475e-05,0.0,0 STARLINK-4101,1 53142U 22083L   22209.58334491  .00005475  00000-0  43321-4 0  9990,2 53142  53.2176 352.4368 0004234 277.4072 190.8107 15.73251521  1306,6727.748000000001,91.53,352.462,346.765,0.0
53142.0,STARLINK-4101,PAYLOAD,2022-07-28 22:00:00,15.73256622,0.0004336,53.2171,350.788,280.9646,276.2439,0.00038649,0.00054124,0.0,0 STARLINK-4101,1 53142U 22083L   22209.91667824  .00054124  00000-0  38649-3 0  9997,2 53142  53.2171 350.7880 0004336 280.9646 276.2439 15.73256622  1304,6727.734,91.53,352.516,346.682,0.0
53142.0,STARLINK-4101,PAYLOAD,2022-07-29 06:00:00,15.73273965,0.0004157,53.2181,349.1363,280.3166,5.9016,-0.00017892,-0.00025751,0.0,0 STARLINK-4101,1 53142U 22083L   22210.25001157 -.00025751  00000-0 -17892-3 0  9990,2 53142  53.2181 349.1363 0004157 280.3166   5.9016 15.73273965  2482,6727.684,91.529,352.346,346.75300000000016,0.0
53142.0,STARLINK-4101,PAYLOAD,2022-07-29 14:00:01,15.73284756,0.0003941,53.2183,347.48800000000006,285.0119,90.1992,-0.00064507,-0.00090561,0.0,0 STARLINK-4101,1 53142U 22083L   22210.58334491 -.00090561  00000-0 -64507-3 0  9992,2 53142  53.2183 347.4880 0003941 285.0119  90.1992 15.73284756  1308,6727.654,91.528,352.17,346.867,0.0
53142.0,STARLINK-4101,PAYLOAD,2022-07-29 22:00:00,15.73202925,0.0003874,53.2179,345.839,289.236,174.9673,0.00016579,0.00022718,0.0,0 STARLINK-4101,1 53142U 22083L   22210.91667824  .00022718  00000-0  16579-3 0  9991,2 53142  53.2179 345.8390 0003874 289.2360 174.9673 15.73202925  1305,6727.887,91.533,352.358,347.145,0.0
53142.0,STARLINK-4101,PAYLOAD,2022-07-30 04:00:00,15.73186705,0.0003863,53.2176,344.5996,284.9478,155.9291,0.00021525,0.00029686,0.0,0 STARLINK-4101,1 53142U 22083L   22211.16667824  .00029686  00000-0  21525-3 0  9997,2 53142  53.2176 344.5996 0003863 284.9478 155.9291 15.73186705  2639,6727.933000000001,91.534,352.397,347.199,0.0
53142.0,STARLINK-4101,PAYLOAD,2022-07-30 14:00:01,15.73202775,0.0003858,53.2173,342.5388,285.8601,356.1768,2.1566e-05,2.405e-05,0.0,0 STARLINK-4101,1 53142U 22083L   22211.58334491  .00002405  00000-0  21566-4 0  9990,2 53142  53.2173 342.5388 0003858 285.8601 356.1768 15.73202775  1304,6727.887,91.533,352.348,347.157,0.0
